norad_id,name,regime,epoch,line1,line2,inclination,eccentricity,mean_motion,raan,arg_pericenter,mean_anomaly
19751,COSMOS 1989 (ETALON 1),NSO,91034.88574782,1 19751U 89001  C 91034.88574782  .00000020 +00000-0 +99999-4 0 09246\,2 19751 064.8706 151.0556 0009868 251.1148 108.7798 02.13155962016104,64.8706,0.0009868,2.13155962,151.0556,251.1148,108.7798
19751,COSMOS 1989 (ETALON 1),NSO,91034.88574783,1 19751U 89001  C 91034.88574783  .00000061 +00000-0 +00000-4 0 09247\,2 19751 064.8706 151.0555 0009868 251.1148 108.7798 02.13155963016104,64.8706,0.0009868,2.13155963,151.0555,251.1148,108.7798
19751,COSMOS 1989 (ETALON 1),NSO,91036.29317036,1 19751U 89001  C 91036.29317036  .00000061 +00000-0 +00000-4 0 09240\,2 19751 064.8706 151.0091 0009868 251.1372 108.7569 02.13155971016136,64.8706,0.0009868,2.13155971,151.0091,251.1372,108.7569
19751,COSMOS 1989 (ETALON 1),NSO,91037.23145274,1 19751U 89001  C 91037.23145274  .00000020 +00000-0 +99999-4 0 09260\,2 19751 064.8700 150.9798 0009849 251.1920 108.7000 02.13155906016150,64.87,0.0009849,2.13155906,150.9798,251.192,108.7
19751,COSMOS 1989 (ETALON 1),NSO,91037.70059232,1 19751U 89001  C 91037.70059232  .00000054 +00000-0 -1824002 0 09265\,2 19751 064.8702 150.9639 0009837 251.3066 108.5831 02.13155779016165,64.8702,0.0009837,2.13155779,150.9639,251.3066,108.5831
19751,COSMOS 1989 (ETALON 1),NSO,91048.02174130,1 19751U 89001  C 91048.02174130  .00000061 +00000-0 +00000-4 0 09273\,2 19751 064.8693 150.6234 0009873 251.1557 108.7672 02.13155942016386,64.8693,0.0009873,2.13155942,150.6234,251.1557,108.7672
19751,COSMOS 1989 (ETALON 1),NSO,91048.96002023,1 19751U 89001  C 91048.96002023  .00000020 +00000-0 +99999-4 0 09288\,2 19751 064.8703 150.5927 0009894 251.3348 108.5875 02.13155987016404,64.8703,0.0009894,2.13155987,150.5927,251.3348,108.5875
19751,COSMOS 1989 (ETALON 1),NSO,91049.42915985,1 19751U 89001  C 91049.42915985  .00000061 +00000-0 +00000-4 0 09291\,2 19751 064.8693 150.5777 0009876 251.1597 108.7609 02.13155978016417,64.8693,0.0009876,2.13155978,150.5777,251.1597,108.7609
19751,COSMOS 1989 (ETALON 1),NSO,91050.36744477,1 19751U 89001  C 91050.36744477  .00000020 +00000-0 +99999-4 0 09304\,2 19751 064.8698 150.5456 0009880 251.1000 108.8223 02.13155955016430,64.8698,0.000988,2.13155955,150.5456,251.1,108.8223
19751,COSMOS 1989 (ETALON 1),NSO,91050.83658631,1 19751U 89001  C 91050.83658631  .00000061 +00000-0 +00000-4 0 09313\,2 19751 064.8685 150.5316 0009895 251.2577 108.6639 02.13155965016448,64.8685,0.0009895,2.13155965,150.5316,251.2577,108.6639
19751,COSMOS 1989 (ETALON 1),NSO,91052.24400625,1 19751U 89001  C 91052.24400625  .00000061 +00000-0 +00000-4 0 09329\,2 19751 064.8687 150.4844 0009877 251.1922 108.7257 02.13155933016473,64.8687,0.0009877,2.13155933,150.4844,251.1922,108.7257
19751,COSMOS 1989 (ETALON 1),NSO,91054.58970187,1 19751U 89001  C 91054.58970187  .00000020 +00000-0 +99999-4 0 09345\,2 19751 064.8677 150.4072 0009878 251.3329 108.5775 02.13155922016526,64.8677,0.0009878,2.13155922,150.4072,251.3329,108.5775
19751,COSMOS 1989 (ETALON 1),NSO,91055.52798512,1 19751U 89001  C 91055.52798512  .00000020 +00000-0 +99999-4 0 09351\,2 19751 064.8685 150.3754 0009861 251.3956 108.5160 02.13155947016546,64.8685,0.0009861,2.13155947,150.3754,251.3956,108.516
19751,COSMOS 1989 (ETALON 1),NSO,91055.52798513,1 19751U 89001  C 91055.52798513  .00000061 +00000-0 +00000-4 0 09352\,2 19751 064.8685 150.3754 0009861 251.3955 108.5160 02.13155947016545,64.8685,0.0009861,2.13155947,150.3754,251.3955,108.516
19751,COSMOS 1989 (ETALON 1),NSO,91056.46626838,1 19751U 89001  C 91056.46626838  .00000061 +00000-0 +00000-4 0 09367\,2 19751 064.8670 150.3440 0009867 251.2329 108.6810 02.13156006016563,64.867,0.0009867,2.13156006,150.344,251.2329,108.681
19751,COSMOS 1989 (ETALON 1),NSO,91056.93540878,1 19751U 89001  C 91056.93540878  .00000020 +00000-0 +99999-4 0 09379\,2 19751 064.8695 150.3302 0009964 251.4089 108.5046 02.13155972016572,64.8695,0.0009964,2.13155972,150.3302,251.4089,108.5046
19751,COSMOS 1989 (ETALON 1),NSO,91057.40446828,1 19751U 89001  C 91057.40446828  .00000061 +00000-0 +00000-4 0 09383\,2 19751 064.8715 150.3142 0009950 252.1389 107.7107 02.13155942016580,64.8715,0.000995,2.13155942,150.3142,252.1389,107.7107
19751,COSMOS 1989 (ETALON 1),NSO,91058.34284131,1 19751U 89001  C 91058.34284131  .00000061 +00000-0 +00000-4 0 09395\,2 19751 064.8689 150.2830 0009926 251.2583 108.6620 02.13155975016601,64.8689,0.0009926,2.13155975,150.283,251.2583,108.662
19751,COSMOS 1989 (ETALON 1),NSO,91058.81198431,1 19751U 89001  C 91058.81198431  .00000020 +00000-0 +99999-4 0 09406\,2 19751 064.8693 150.2673 0009955 251.2689 108.6538 02.13156001016610,64.8693,0.0009955,2.13156001,150.2673,251.2689,108.6538
19751,COSMOS 1989 (ETALON 1),NSO,91059.28112748,1 19751U 89001  C 91059.28112748  .00000061 +00000-0 +00000-4 0 09416\,2 19751 064.8693 150.2517 0009955 251.2566 108.6677 02.13156003016628,64.8693,0.0009955,2.13156003,150.2517,251.2566,108.6677
19751,COSMOS 1989 (ETALON 1),NSO,91061.15770449,1 19751U 89001  C 91061.15770449  .00000020 +00000-0 +99999-4 0 09424\,2 19751 064.8686 150.1894 0009942 251.1852 108.7493 02.13156011016660,64.8686,0.0009942,2.13156011,150.1894,251.1852,108.7493
19751,COSMOS 1989 (ETALON 1),NSO,91062.56513422,1 19751U 89001  C 91062.56513422  .00000061 +00000-0 +00000-4 0 09426\,2 19751 064.8706 150.1444 0009927 252.1336 107.8013 02.13155942016698,64.8706,0.0009927,2.13155942,150.1444,252.1336,107.8013
19751,COSMOS 1989 (ETALON 1),NSO,91063.50342308,1 19751U 89001  C 91063.50342308  .00000020 +00000-0 +99999-4 0 09435\,2 19751 064.8705 150.1116 0009988 252.0440 107.8934 02.13155828016713,64.8705,0.0009988,2.13155828,150.1116,252.044,107.8934
19751,COSMOS 1989 (ETALON 1),NSO,91063.50342309,1 19751U 89001  C 91063.50342309  .00000061 +00000-0 +00000-4 0 09436\,2 19751 064.8705 150.1115 0009988 252.0440 107.8934 02.13155828016712,64.8705,0.0009988,2.13155828,150.1115,252.044,107.8934
19751,COSMOS 1989 (ETALON 1),NSO,91064.44170829,1 19751U 89001  C 91064.44170829  .00000020 +00000-0 +99999-4 0 09447\,2 19751 064.8696 150.0812 0009966 251.4123 108.5308 02.13155940016731,64.8696,0.0009966,2.1315594,150.0812,251.4123,108.5308
19751,COSMOS 1989 (ETALON 1),NSO,91065.37998850,1 19751U 89001  C 91065.37998850  .00000061 +00000-0 +00000-4 0 09453\,2 19751 064.8702 150.0501 0009980 251.4763 108.4641 02.13155922016751,64.8702,0.000998,2.13155922,150.0501,251.4763,108.4641
19751,COSMOS 1989 (ETALON 1),NSO,91066.31826792,1 19751U 89001  C 91066.31826792  .00000061 +00000-0 +00000-4 0 09464\,2 19751 064.8706 150.0188 0010012 251.5345 108.4014 02.13155856016773,64.8706,0.0010012,2.13155856,150.0188,251.5345,108.4014
19751,COSMOS 1989 (ETALON 1),NSO,91067.25655109,1 19751U 89001  C 91067.25655109  .00000020 +00000-0 +99999-4 0 09471\,2 19751 064.8703 149.9859 0010004 251.8925 108.0446 02.13155880016794,64.8703,0.0010004,2.1315588,149.9859,251.8925,108.0446
19751,COSMOS 1989 (ETALON 1),NSO,91068.19483219,1 19751U 89001  C 91068.19483219  .00000020 +00000-0 +99999-4 0 09487\,2 19751 064.8699 149.9562 0009991 251.3747 108.5626 02.13155890016818,64.8699,0.0009991,2.1315589,149.9562,251.3747,108.5626
19751,COSMOS 1989 (ETALON 1),NSO,91068.66397265,1 19751U 89001  C 91068.66397265  .00000020 +00000-0 +99999-4 0 09495\,2 19751 064.8688 149.9404 0009965 251.2548 108.6831 02.13155907016829,64.8688,0.0009965,2.13155907,149.9404,251.2548,108.6831
19751,COSMOS 1989 (ETALON 1),NSO,91069.13311322,1 19751U 89001  C 91069.13311322  .00000061 +00000-0 +00000-4 0 09500\,2 19751 064.8678 149.9237 0010055 251.6217 108.3224 02.13156177016835,64.8678,0.0010055,2.13156177,149.9237,251.6217,108.3224
19751,COSMOS 1989 (ETALON 1),NSO,91071.47882132,1 19751U 89001  C 91071.47882132  .00000061 +00000-0 +00000-4 0 09524\,2 19751 064.8687 149.8457 0009962 251.7157 108.2275 02.13156022016886,64.8687,0.0009962,2.13156022,149.8457,251.7157,108.2275
19751,COSMOS 1989 (ETALON 1),NSO,91072.88625477,1 19751U 89001  C 91072.88625477  .00000020 +00000-0 +99999-4 0 09538\,2 19751 064.8705 149.8011 0009970 251.0979 108.8559 02.13156151016915,64.8705,0.000997,2.13156151,149.8011,251.0979,108.8559
19751,COSMOS 1989 (ETALON 1),NSO,91073.35539540,1 19751U 89001  C 91073.35539540  .00000061 +00000-0 +00000-4 0 09547\,2 19751 064.8701 149.7851 0009988 251.2180 108.7343 02.13156059016925,64.8701,0.0009988,2.13156059,149.7851,251.218,108.7343
19751,COSMOS 1989 (ETALON 1),NSO,91073.82454197,1 19751U 89001  C 91073.82454197  .00000020 +00000-0 +99999-4 0 09554\,2 19751 064.8691 149.7695 0010009 251.3183 108.6393 02.13156186016935,64.8691,0.0010009,2.13156186,149.7695,251.3183,108.6393
19751,COSMOS 1989 (ETALON 1),NSO,91075.23197145,1 19751U 89001  C 91075.23197145  .00000020 +00000-0 +99999-4 0 09569\,2 19751 064.8698 149.7226 0009997 251.2980 108.6633 02.13156055016965,64.8698,0.0009997,2.13156055,149.7226,251.298,108.6633
19751,COSMOS 1989 (ETALON 1),NSO,91075.70111801,1 19751U 89001  C 91075.70111801  .00000020 +00000-0 +99999-4 0 09577\,2 19751 064.8691 149.7072 0010027 251.2963 108.6712 02.13156175016976,64.8691,0.0010027,2.13156175,149.7072,251.2963,108.6712
19751,COSMOS 1989 (ETALON 1),NSO,91076.63938458,1 19751U 89001  C 91076.63938458  .00000061 +00000-0 +00000-4 0 09597\,2 19751 064.8691 149.6762 0010018 251.2917 108.6630 02.13156131016993,64.8691,0.0010018,2.13156131,149.6762,251.2917,108.663
19751,COSMOS 1989 (ETALON 1),NSO,91077.57768421,1 19751U 89001  C 91077.57768421  .00000020 +00000-0 +99999-4 0 09604\,2 19751 064.8696 149.6451 0009990 251.3455 108.6215 02.13156047017017,64.8696,0.000999,2.13156047,149.6451,251.3455,108.6215
19751,COSMOS 1989 (ETALON 1),NSO,91077.57768453,1 19751U 89001  C 91077.57768453  .00000061 +00000-0 +00000-4 0 09609\,2 19751 064.8696 149.6451 0009990 251.3454 108.6215 02.13156048017017,64.8696,0.000999,2.13156048,149.6451,251.3454,108.6215
